start=new Date('2023-03-04T00:00:00.000Z').valueOf();
sats=[{"MEAN_MOTION_DOT":"0.00008587","MEAN_ELEMENT_THEORY":"SGP4","BSTAR":"0.00067189000000","OBJECT_ID":"2022-077C","CENTER_NAME":"EARTH","SITE":"AFWTR","ARG_OF_PERICENTER":"240.4979","ELEMENT_SET_NO":"999","MEAN_MOTION":"15.01284478","PERIAPSIS":"562.276","EPOCH":"2023-03-03T17:56:37.402368","GP_ID":"227435157","NORAD_CAT_ID":"53045","SEMIMAJOR_AXIS":"6941.071","EPHEMERIS_TYPE":"0","REF_FRAME":"TEME","LAUNCH_DATE":"2022-07-11","PERIOD":"95.918","APOAPSIS":"563.597","MEAN_MOTION_DDOT":"0.0000000000000","CLASSIFICATION_TYPE":"U","TIME_SYSTEM":"UTC","OBJECT_TYPE":"PAYLOAD","DECAY_DATE":null,"TLE_LINE1":"1 53045U 22077C   23062.74765512  .00008587  00000-0  67189-3 0  9997","INCLINATION":"97.6528","ECCENTRICITY":"0.00009520","RA_OF_ASC_NODE":"245.3124","MEAN_ANOMALY":"119.6150","COUNTRY_CODE":"US","REV_AT_EPOCH":"3559","FILE":"3850400","OBJECT_NAME":"STARLINK-4350","TLE_LINE2":"2 53045  97.6528 245.3124 0000952 240.4979 119.6150 15.01284478 35593","RCS_SIZE":"LARGE"},{"OBJECT_NAME":"STARLINK-4331","FILE":"3850400","TLE_LINE2":"2 53046  97.6532 245.3213 0002557 239.3622 120.7350 15.01290235 35596","RCS_SIZE":"LARGE","REV_AT_EPOCH":"3559","MEAN_ANOMALY":"120.7350","RA_OF_ASC_NODE":"245.3213","COUNTRY_CODE":"US","INCLINATION":"97.6532","TLE_LINE1":"1 53046U 22077D   23062.74024228  .00009678  00000-0  75643-3 0  9996","DECAY_DATE":null,"ECCENTRICITY":"0.00025570","OBJECT_TYPE":"PAYLOAD","TIME_SYSTEM":"UTC","CLASSIFICATION_TYPE":"U","MEAN_MOTION_DDOT":"0.0000000000000","LAUNCH_DATE":"2022-07-11","PERIOD":"95.917","APOAPSIS":"564.693","EPHEMERIS_TYPE":"0","REF_FRAME":"TEME","GP_ID":"227433906","EPOCH":"2023-03-03T17:45:56.932992","SEMIMAJOR_AXIS":"6941.054","NORAD_CAT_ID":"53046","PERIAPSIS":"561.144","MEAN_MOTION":"15.01290235","ARG_OF_PERICENTER":"239.3622","ELEMENT_SET_NO":"999","SITE":"AFWTR","MEAN_ELEMENT_THEORY":"SGP4","BSTAR":"0.00075643000000","MEAN_MOTION_DOT":"0.00009678","CENTER_NAME":"EARTH","OBJECT_ID":"2022-077D"},{"RA_OF_ASC_NODE":"245.3185","MEAN_ANOMALY":"117.2681","COUNTRY_CODE":"US","REV_AT_EPOCH":"3559","FILE":"3850400","OBJECT_NAME":"STARLINK-4352","RCS_SIZE":"LARGE","TLE_LINE2":"2 53047  97.6534 245.3185 0002301 242.8308 117.2681 15.01275309 35597","MEAN_MOTION_DDOT":"0.0000000000000","CLASSIFICATION_TYPE":"U","TIME_SYSTEM":"UTC","OBJECT_TYPE":"PAYLOAD","DECAY_DATE":null,"INCLINATION":"97.6534","TLE_LINE1":"1 53047U 22077E   23062.73839165  .00005322  00000-0  41844-3 0  9998","ECCENTRICITY":"0.00023010","PERIAPSIS":"561.368","EPOCH":"2023-03-03T17:43:17.038560","GP_ID":"227434156","NORAD_CAT_ID":"53047","SEMIMAJOR_AXIS":"6941.100","EPHEMERIS_TYPE":"0","REF_FRAME":"TEME","LAUNCH_DATE":"2022-07-11","PERIOD":"95.918","APOAPSIS":"564.562","MEAN_MOTION_DOT":"0.00005322","MEAN_ELEMENT_THEORY":"SGP4","BSTAR":"0.00041844000000","OBJECT_ID":"2022-077E","CENTER_NAME":"EARTH","SITE":"AFWTR","ARG_OF_PERICENTER":"242.8308","ELEMENT_SET_NO":"999","MEAN_MOTION":"15.01275309"},{"DECAY_DATE":null,"INCLINATION":"97.6533","TLE_LINE1":"1 53048U 22077F   23062.73863474  .00013443  00000-0  10482-2 0  9995","ECCENTRICITY":"0.00026070","TIME_SYSTEM":"UTC","OBJECT_TYPE":"PAYLOAD","MEAN_MOTION_DDOT":"0.0000000000000","CLASSIFICATION_TYPE":"U","FILE":"3850400","OBJECT_NAME":"STARLINK-4355","TLE_LINE2":"2 53048  97.6533 245.3192 0002607 242.7335 117.3624 15.01294962 35586","RCS_SIZE":"LARGE","REV_AT_EPOCH":"3558","RA_OF_ASC_NODE":"245.3192","MEAN_ANOMALY":"117.3624","COUNTRY_CODE":"US","MEAN_MOTION":"15.01294962","ARG_OF_PERICENTER":"242.7335","ELEMENT_SET_NO":"999","SITE":"AFWTR","MEAN_MOTION_DOT":"0.00013443","BSTAR":"0.00104820000000","MEAN_ELEMENT_THEORY":"SGP4","OBJECT_ID":"2022-077F","CENTER_NAME":"EARTH","LAUNCH_DATE":"2022-07-11","APOAPSIS":"564.714","PERIOD":"95.917","EPHEMERIS_TYPE":"0","REF_FRAME":"TEME","EPOCH":"2023-03-03T17:43:38.041536","GP_ID":"227434907","NORAD_CAT_ID":"53048","SEMIMAJOR_AXIS":"6941.039","PERIAPSIS":"561.095"},{"OBJECT_TYPE":"PAYLOAD","TIME_SYSTEM":"UTC","CLASSIFICATION_TYPE":"U","MEAN_MOTION_DDOT":"0.0000000000000","INCLINATION":"97.6556","TLE_LINE1":"1 53049U 22077G   23062.46647262  .00004551  00000-0  35858-3 0  9996","DECAY_DATE":null,"ECCENTRICITY":"0.00019230","MEAN_ANOMALY":"114.2137","RA_OF_ASC_NODE":"245.0508","COUNTRY_CODE":"US","FILE":"3850163","OBJECT_NAME":"STARLINK-4345","TLE_LINE2":"2 53049  97.6556 245.0508 0001923 245.8886 114.2137 15.01269185 35545","RCS_SIZE":"LARGE","REV_AT_EPOCH":"3554","SITE":"AFWTR","BSTAR":"0.00035858000000","MEAN_ELEMENT_THEORY":"SGP4","MEAN_MOTION_DOT":"0.00004551","CENTER_NAME":"EARTH","OBJECT_ID":"2022-077G","MEAN_MOTION":"15.01269185","ARG_OF_PERICENTER":"245.8886","ELEMENT_SET_NO":"999","GP_ID":"227403174","EPOCH":"2023-03-03T11:11:43.234368","SEMIMAJOR_AXIS":"6941.119","NORAD_CAT_ID":"53049","PERIAPSIS":"561.649","LAUNCH_DATE":"2022-07-11","PERIOD":"95.919","APOAPSIS":"564.318","EPHEMERIS_TYPE":"0","REF_FRAME":"TEME"},{"REF_FRAME":"TEME","EPHEMERIS_TYPE":"0","APOAPSIS":"564.587","PERIOD":"95.918","LAUNCH_DATE":"2022-07-11","PERIAPSIS":"561.258","SEMIMAJOR_AXIS":"6941.057","NORAD_CAT_ID":"53050","GP_ID":"227434405","EPOCH":"2023-03-03T17:40:37.835328","ELEMENT_SET_NO":"999","ARG_OF_PERICENTER":"225.2237","MEAN_MOTION":"15.01289109","CENTER_NAME":"EARTH","OBJECT_ID":"2022-077H","MEAN_ELEMENT_THEORY":"SGP4","BSTAR":"0.00096295000000","MEAN_MOTION_DOT":"0.00012341","SITE":"AFWTR","REV_AT_EPOCH":"3558","RCS_SIZE":"LARGE","TLE_LINE2":"2 53050  97.6538 245.3164 0002398 225.2237 134.8792 15.01289109 35584","FILE":"3850400","OBJECT_NAME":"STARLINK-4343","COUNTRY_CODE":"US","MEAN_ANOMALY":"134.8792","RA_OF_ASC_NODE":"245.3164","ECCENTRICITY":"0.00023980","INCLINATION":"97.6538","TLE_LINE1":"1 53050U 22077H   23062.73654902  .00012341  00000-0  96295-3 0  9995","DECAY_DATE":null,"CLASSIFICATION_TYPE":"U","MEAN_MOTION_DDOT":"0.0000000000000","OBJECT_TYPE":"PAYLOAD","TIME_SYSTEM":"UTC"},{"MEAN_MOTION":"15.01265969","ELEMENT_SET_NO":"999","ARG_OF_PERICENTER":"230.0635","SITE":"AFWTR","OBJECT_ID":"2022-077J","CENTER_NAME":"EARTH","MEAN_MOTION_DOT":"0.00002817","MEAN_ELEMENT_THEORY":"SGP4","BSTAR":"0.00022377000000","APOAPSIS":"563.357","PERIOD":"95.919","LAUNCH_DATE":"2022-07-11","REF_FRAME":"TEME","EPHEMERIS_TYPE":"0","NORAD_CAT_ID":"53051","SEMIMAJOR_AXIS":"6941.128","EPOCH":"2023-03-03T11:08:42.419904","GP_ID":"227403651","PERIAPSIS":"562.630","ECCENTRICITY":"0.00005240","DECAY_DATE":null,"INCLINATION":"97.6569","TLE_LINE1":"1 53051U 22077J   23062.46437986  .00002817  00000-0  22377-3 0  9994","TIME_SYSTEM":"UTC","OBJECT_TYPE":"PAYLOAD","MEAN_MOTION_DDOT":"0.0000000000000","CLASSIFICATION_TYPE":"U","TLE_LINE2":"2 53051  97.6569 245.0498 0000524 230.0635 130.0543 15.01265969 35547","RCS_SIZE":"LARGE","FILE":"3850163","OBJECT_NAME":"STARLINK-4336","REV_AT_EPOCH":"3554","COUNTRY_CODE":"US","RA_OF_ASC_NODE":"245.0498","MEAN_ANOMALY":"130.0543"},{"ELEMENT_SET_NO":"999","ARG_OF_PERICENTER":"241.4399","MEAN_MOTION":"15.01291392","CENTER_NAME":"EARTH","OBJECT_ID":"2022-077K","BSTAR":"0.00104150000000","MEAN_ELEMENT_THEORY":"SGP4","MEAN_MOTION_DOT":"0.00013355","SITE":"AFWTR","REF_FRAME":"TEME","EPHEMERIS_TYPE":"0","APOAPSIS":"564.573","PERIOD":"95.917","LAUNCH_DATE":"2022-07-11","PERIAPSIS":"561.257","SEMIMAJOR_AXIS":"6941.050","NORAD_CAT_ID":"53052","GP_ID":"227402426","EPOCH":"2023-03-03T11:14:02.301216","ECCENTRICITY":"0.00023890","INCLINATION":"97.6539","TLE_LINE1":"1 53052U 22077K   23062.46808219  .00013355  00000-0  10415-2 0  9994","DECAY_DATE":null,"CLASSIFICATION_TYPE":"U","MEAN_MOTION_DDOT":"0.0000000000000","OBJECT_TYPE":"PAYLOAD","TIME_SYSTEM":"UTC","REV_AT_EPOCH":"3554","TLE_LINE2":"2 53052  97.6539 245.0526 0002389 241.4399 118.6585 15.01291392 35548","RCS_SIZE":"LARGE","FILE":"3850163","OBJECT_NAME":"STARLINK-4341","COUNTRY_CODE":"US","MEAN_ANOMALY":"118.6585","RA_OF_ASC_NODE":"245.0526"},{"DECAY_DATE":null,"TLE_LINE1":"1 53053U 22077L   23062.46067693  .00001721  00000-0  13850-3 0  9999","INCLINATION":"97.6579","ECCENTRICITY":"0.00015250","MEAN_MOTION_DDOT":"0.0000000000000","CLASSIFICATION_TYPE":"U","TIME_SYSTEM":"UTC","OBJECT_TYPE":"PAYLOAD","REV_AT_EPOCH":"3554","OBJECT_NAME":"STARLINK-4337","FILE":"3850163","RCS_SIZE":"LARGE","TLE_LINE2":"2 53053  97.6579 245.0524 0001525 241.4438 118.6633 15.01269437 35545","RA_OF_ASC_NODE":"245.0524","MEAN_ANOMALY":"118.6633","COUNTRY_CODE":"US","ARG_OF_PERICENTER":"241.4438","ELEMENT_SET_NO":"999","MEAN_MOTION":"15.01269437","MEAN_MOTION_DOT":"0.00001721","BSTAR":"0.00013850000000","MEAN_ELEMENT_THEORY":"SGP4","OBJECT_ID":"2022-077L","CENTER_NAME":"EARTH","SITE":"AFWTR","EPHEMERIS_TYPE":"0","REF_FRAME":"TEME","LAUNCH_DATE":"2022-07-11","APOAPSIS":"564.041","PERIOD":"95.919","PERIAPSIS":"561.924","EPOCH":"2023-03-03T11:03:22.486752","GP_ID":"227403673","NORAD_CAT_ID":"53053","SEMIMAJOR_AXIS":"6941.118"},{"COUNTRY_CODE":"US","RA_OF_ASC_NODE":"245.1164","MEAN_ANOMALY":"125.1721","RCS_SIZE":"LARGE","TLE_LINE2":"2 53054  97.6555 245.1164 0001018 234.9408 125.1721 15.01274611 36139","OBJECT_NAME":"STARLINK-4339","FILE":"3850192","REV_AT_EPOCH":"3613","TIME_SYSTEM":"UTC","OBJECT_TYPE":"PAYLOAD","MEAN_MOTION_DDOT":"0.0000000000000","CLASSIFICATION_TYPE":"U","ECCENTRICITY":"0.00010180","DECAY_DATE":null,"TLE_LINE1":"1 53054U 22077M   23062.53289048  .00007204  00000-0  56470-3 0  9995","INCLINATION":"97.6555","NORAD_CAT_ID":"53054","SEMIMAJOR_AXIS":"6941.102","EPOCH":"2023-03-03T12:47:21.737472","GP_ID":"227406974","PERIAPSIS":"562.260","APOAPSIS":"563.673","PERIOD":"95.918","LAUNCH_DATE":"2022-07-11","REF_FRAME":"TEME","EPHEMERIS_TYPE":"0","SITE":"AFWTR","OBJECT_ID":"2022-077M","CENTER_NAME":"EARTH","MEAN_MOTION_DOT":"0.00007204","BSTAR":"0.00056470000000","MEAN_ELEMENT_THEORY":"SGP4","MEAN_MOTION":"15.01274611","ELEMENT_SET_NO":"999","ARG_OF_PERICENTER":"234.9408"}];
